TEN-KOH                 
1 43677U 18084G   23123.37617584  .00002346  00000+0  23232-3 0  9999
2 43677  98.0057 262.4690 0014014 298.3304  61.6501 14.92785004245376
DIWATA-2B               
1 43678U 18084H   23123.69775945  .00002304  00000+0  22572-3 0  9991
2 43678  98.0147 266.7920 0008404 314.2697  45.7834 14.93278154245623
STARS-AO                
1 43679U 18084J   23123.40845023  .00004632  00000+0  41378-3 0  9997
2 43679  98.0161 269.5224 0007108 315.1447  44.9198 14.96412751245733
AUTCUBE 2               
1 43681U 18084K   23123.67027570  .00003827  00000+0  35347-3 0  9992
2 43681  98.0128 267.8644 0007578 309.9777  50.0777 14.95209143245654
METOP-C                 
1 43689U 18087A   23123.77762652  .00000161  00000+0  93632-4 0  9991
2 43689  98.6862 184.0004 0003037 168.8875 191.2370 14.21497787232813
ES'HAIL 2               
1 43700U 18090A   23123.49312060  .00000157  00000+0  00000+0 0  9999
2 43700   0.0134 268.3331 0001492 161.8110 354.3393  1.00274716 16234
FACSAT-1                
1 43721U 18096C   23123.79191340  .00308689  00000+0  15425-2 0  9998
2 43721  97.3079 213.1918 0007687 274.8950 206.1151 15.80977058247528
REAKTOR HELLO WORLD     
1 43743U 18096AA  23123.49126324  .00045528  00000+0  72294-3 0  9997
2 43743  97.3184 209.4285 0008459 344.4724  15.6269 15.53180189247226
ELYSIUM STAR 2 & LFF    
1 43760U 18099C   23123.46372412  .00011807  00000+0  83008-3 0  9995
2 43760  97.5704 190.1903 0008187 247.3938 112.6423 15.05219087241124
2018-099D               
1 43761U 18099D   23123.43269879  .00002143  00000+0  18926-3 0  9995
2 43761  97.5764 186.0702 0012776 275.4000  84.5786 14.97348291240873
AISTECHSAT 2            
1 43768U 18099L   23123.42640791  .00003417  00000+0  29353-3 0  9998
2 43768  97.5703 184.4724 0009636 273.0208  86.9912 14.98055962240546
FOX-1CLIFF (AO-95)      
1 43770U 18099N   23123.38631898  .00005356  00000+0  44191-3 0  9995
2 43770  97.5757 186.1316 0010254 278.8664  81.1399 14.99377675240894
RANGE-A                 
1 43772U 18099Q   23123.44054489  .00006321  00000+0  49991-3 0  9995
2 43772  97.5839 188.8070 0006937 251.3896 108.6575 15.00958411240953
RANGE-B                 
1 43773U 18099R   23123.12371870  .00003977  00000+0  33988-3 0  9990
2 43773  97.5686 184.0998 0010459 268.6076  91.3949 14.98162102240814
2018-099T               
1 43775U 18099T   23123.41273244  .00002087  00000+0  18218-3 0  9990
2 43775  97.5763 185.8735 0012280 274.7786  85.2034 14.97831986240864
MOVE-II                 
1 43780U 18099Y   23123.44147991  .00008485  00000+0  63626-3 0  9999
2 43780  97.5760 188.4366 0006926 309.1817  50.8792 15.02888731241018
SNUSAT-2                
1 43782U 18099AA  23123.74880815  .00003536  00000+0  29383-3 0  9997
2 43782  97.5771 187.0095 0010559 267.5053  92.4962 14.99317575240975
SNUGLITE                
1 43784U 18099AC  23123.44975729  .00005240  00000+0  42724-3 0  9993
2 43784  97.5712 186.3506 0010117 266.9451  93.0615 14.99845305240964
ITASAT 1                
1 43786U 18099AE  23123.44633771  .00004206  00000+0  35030-3 0  9996
2 43786  97.5775 187.2266 0012357 268.6066  91.3742 14.99111951240940
KAZSCISAT-1             
1 43787U 18099AF  23123.45572397  .00008648  00000+0  65455-3 0  9992
2 43787  97.5594 186.9448 0007659 273.5191  86.5158 15.02523564241053
EAGLET-I                
1 43790U 18099AJ  23123.40958874  .00002844  00000+0  24054-3 0  9991
2 43790  97.5807 187.6929 0010581 279.6585  80.3442 14.98794450240671
ESEO                    
1 43792U 18099AL  23123.72695809  .00002677  00000+0  23457-3 0  9994
2 43792  97.5733 186.5990 0010732 274.5200  85.4796 14.97453774240738
CSIM-FD                 
1 43793U 18099AM  23123.74976640  .00007819  00000+0  57895-3 0  9998
2 43793  97.5778 190.0007 0014807 276.4629  83.4910 15.03327083240906
ASTROCAST 0.1           
1 43798U 18099AS  23123.44655738  .00005035  00000+0  38928-3 0  9996
2 43798  97.5918 189.0985 0011903 247.5843 112.4121 15.01888752241058
JY1SAT (JO-97)          
1 43803U 18099AX  23123.43809739  .00005126  00000+0  41296-3 0  9997
2 43803  97.5711 187.1741 0011670 254.2343 105.7595 15.00305411240982
SUOMI-100               
1 43804U 18099AY  23123.42483487  .00004379  00000+0  35592-3 0  9996
2 43804  97.5720 186.9963 0015039 267.2668  92.6834 15.00010950240984
AL-FARABI 2             
1 43805U 18099AZ  23123.41580423  .00006490  00000+0  50516-3 0  9993
2 43805  97.5687 187.9658 0009406 242.4200 117.6051 15.01541013241033
CENTAURI-1              
1 43809U 18099BD  23123.43803419  .00003547  00000+0  29694-3 0  9995
2 43809  97.5744 187.1126 0013311 270.6549  89.3149 14.99004087240664
CHOMPTT                 
1 43855U 18104G   23123.25395052  .00019952  00000+0  52400-3 0  9990
2 43855  85.0347 196.6686 0014993 127.8758 232.3852 15.38372375243660
UWE-4                   
1 43880U 18111E   23123.52030151  .00005594  00000+0  43397-3 0  9994
2 43880  97.6414  29.4127 0015210 332.5984  27.4436 15.01681029237667
ZACUBE-2                
1 43907U 18111AH  23123.74998885  .00025421  00000+0  67074-3 0  9994
2 43907  97.1462   4.4619 0016208  23.2503  17.2781 15.38323817242319
MICRODRAGON             
1 43935U 19003D   23123.56877469  .00013837  00000+0  43490-3 0  9994
2 43935  97.1072 144.8280 0016662 112.1772 248.1241 15.32952854238594
M6P                     
1 44109U 19018AF  23123.22549894  .00108533  00000+0  85197-3 0  9993
2 44109  97.3682 219.6901 0020504  39.4718 320.8034 15.70918828228951
FORMOSAT 7-4            
1 44350U 19036M   23123.85083552  .00008374  00000+0  43294-3 0  9998
2 44350  24.0007 334.5711 0005242 326.4805  33.5368 15.13677592212050
METEOR-M2 2             
1 44387U 19038A   23123.89815100  .00000094  00000+0  60545-4 0  9996
2 44387  98.7711  87.8992 0002403  73.6181 286.5264 14.23777711199001
VDNH-80                 
1 44392U 19038G   23123.80213058  .00022297  00000+0  82484-3 0  9991
2 44392  97.6713 103.7120 0018469  97.1398  21.6090 15.27544410211539
D-STAR ONE (LIGHTSAT)   
1 44393U 19038H   23123.48796004  .00021710  00000+0  79001-3 0  9993
2 44393  97.6717 103.4156 0018573  99.7287 260.6050 15.28090263211681
AMGU-1 (AMURSAT)        
1 44394U 19038J   23123.56204439  .00027003  00000+0  93918-3 0  9993
2 44394  97.6714 103.6804 0018217  97.5328 262.7976 15.29529667211718
DOT-1                   
1 44399U 19038P   23123.51442998  .00011574  00000+0  50874-3 0  9997
2 44399  97.6797 100.7736 0022290 109.9099 250.4541 15.21839251211486
SOKRAT                  
1 44404U 19038U   23123.41837271  .00023263  00000+0  82174-3 0  9991
2 44404  97.6703 103.0623 0018454 101.2410 259.0905 15.29051545211669
LUCKY-7                 
1 44406U 19038W   23123.45441437  .00012474  00000+0  53257-3 0  9994
2 44406  97.6780 101.3310 0021954 101.9962 258.3736 15.22815983211513
D-STAR ONE (EXOCONNECT) 
1 44410U 19038AA  23123.84278770  .00059371  00000+0  13819-2 0  9996
2 44410  97.6598 106.8920 0015729  91.8982 268.4066 15.41963417211980
NARSSCUBE-2             
1 44415U 19022E   23123.38679035  .00024163  00000+0  48945-3 0  9992
2 44415  51.6386 359.4901 0010990 139.1306 221.0507 15.46216050209370
DUCHIFAT-3              
1 44854U 19089C   23123.79836267  .00008280  00000+0  56807-3 0  9997
2 44854  36.9642 356.4363 0010800 315.0647 129.3617 15.05551117186142
OPS-SAT                 
1 44878U 19092F   23123.49477980  .00022203  00000+0  71268-3 0  9996
2 44878  97.4766 311.7362 0008196 292.1489  67.8883 15.32293445186940
FLORIPASAT-1            
1 44885U 19093G   23123.76102258  .00004125  00000+0  48385-3 0  9995
2 44885  97.8680 205.4258 0012945 220.9491 139.0730 14.85453721182355
BY70-2                  
1 45857U 20042B   23123.74329007  .00019393  00000+0  20715-2 0  9991
2 45857  97.9256 203.5455 0011021 149.6315 210.5484 14.88784355152923
SALSAT                  
1 46495U 20068K   23123.45051083  .00004515  00000+0  30261-3 0  9990
2 46495  97.7675  71.0034 0013649 272.7722  87.1942 15.07327471142339
NETSAT-4                
1 46504U 20068U   23123.63494319  .00006892  00000+0  46314-3 0  9990
2 46504  97.7596  69.0502 0010398 331.2225  28.8420 15.07061475142192
NETSAT-3                
1 46505U 20068V   23123.39797688  .00006263  00000+0  42306-3 0  9998
2 46505  97.7570  68.6573 0009930 339.9143  20.1690 15.06908734142160
NETSAT-1                
1 46506U 20068W   23123.36664391  .00005985  00000+0  40717-3 0  9994
2 46506  97.7580  68.5186 0008565 354.0369   6.0754 15.06676540142152
NETSAT-2                
1 46507U 20068X   23123.63087132  .00006839  00000+0  46077-3 0  9991
2 46507  97.7585  68.8038 0007981   1.2824 358.8419 15.06986615142147
UVSQ-SAT                
1 47438U 21006AB  23123.70381639  .00013823  00000+0  58883-3 0  9994
2 47438  97.3889 181.4847 0009207 229.9123 130.1307 15.23043979125872
SOMP2B                  
1 47445U 21006AJ  23123.40864077  .00012138  00000+0  52823-3 0  9997
2 47445  97.3857 180.5134 0008785 236.2040 123.8360 15.22350944125806
DIY-1 (ARDUIQUBE)       
1 47963U 21022AH  23123.68799080  .00117113  00000+0  23394-2 0  9990
2 47963  97.5021  30.2840 0014019 100.0292 260.2540 15.46283191115681
CAS-5A                  
1 54684U 22167C   23123.73551729  .00012997  00000+0  73722-3 0  9996
2 54684  97.5552 261.6689 0014991 127.3562 343.8877 15.13000683 21954
